[{"OBJECT_NAME":"STARLINK-35201","OBJECT_ID":"2025-211N","EPOCH":"2026-03-09T16:36:10.677600","MEAN_MOTION":15.05678627,"ECCENTRICITY":0.00012095,"INCLINATION":97.602,"RA_OF_ASC_NODE":114.091,"ARG_OF_PERICENTER":89.6272,"MEAN_ANOMALY":270.5094,"EPHEMERIS_TYPE":0,"CLASSIFICATION_TYPE":"U","NORAD_CAT_ID":65664,"ELEMENT_SET_NO":999,"REV_AT_EPOCH":2704,"BSTAR":0.00061175801,"MEAN_MOTION_DOT":8.784e-5,"MEAN_MOTION_DDOT":0},{"OBJECT_NAME":"OBJECT Z","OBJECT_ID":"2017-042Z","EPOCH":"2026-03-09T21:17:53.130336","MEAN_MOTION":15.06776019,"ECCENTRICITY":0.00062541,"INCLINATION":97.3821,"RA_OF_ASC_NODE":235.9429,"ARG_OF_PERICENTER":50.1524,"MEAN_ANOMALY":310.0253,"EPHEMERIS_TYPE":0,"CLASSIFICATION_TYPE":"U","NORAD_CAT_ID":42848,"ELEMENT_SET_NO":999,"REV_AT_EPOCH":47228,"BSTAR":0.00039314781,"MEAN_MOTION_DOT":5.795e-5,"MEAN_MOTION_DDOT":0}]
